{"type": "FeatureCollection", "features": [ {"type": "Feature", "properties": {"norad_id": 33779, "name": "COSMOS 2251 DEB", "group": "cosmos-2251-debris", "lat": -73.70665355930858, "lon": 68.79572378588517, "alt_km": 661.0757267743975, "timestamp": "2025-12-12T18:57:44.521666+00:00", "meta": {"OBJECT_NAME": "COSMOS 2251 DEB", "OBJECT_ID": "1993-036U", "EPOCH": "2025-12-11T20:48:57.052800", "MEAN_MOTION": 14.70416565, "ECCENTRICITY": 0.0017055, "INCLINATION": 74.045, "RA_OF_ASC_NODE": 172.414, "ARG_OF_PERICENTER": 205.9917, "MEAN_ANOMALY": 217.8136, "EPHEMERIS_TYPE": 0, "CLASSIFICATION_TYPE": "U", "NORAD_CAT_ID": 33779, "ELEMENT_SET_NO": 999, "REV_AT_EPOCH": 88515, "BSTAR": 0.0029068, "MEAN_MOTION_DOT": 0.00017654, "MEAN_MOTION_DDOT": 0}, "tle": {"line1": "1 33779U 93036U   25345.86732700  .00017654  00000+0  29068-2 0  9991", "line2": "2 33779  74.0450 172.4140 0017055 205.9917 217.8136 14.70416565885155"}}, "geometry": {"type": "Point", "coordinates": [68.79572378588517, -73.70665355930858]}}, {"type": "Feature", "properties": {"norad_id": 33782, "name": "COSMOS 2251 DEB", "group": "cosmos-2251-debris", "lat": 21.030763658929523, "lon": -76.22649842277744, "alt_km": 745.1701453797814, "timestamp": "2025-12-12T18:57:44.521676+00:00", "meta": {"OBJECT_NAME": "COSMOS 2251 DEB", "OBJECT_ID": "1993-036X", "EPOCH": "2025-12-12T06:13:25.553856", "MEAN_MOTION": 14.40446427, "ECCENTRICITY": 0.00207546, "INCLINATION": 74.0335, "RA_OF_ASC_NODE": 278.435, "ARG_OF_PERICENTER": 343.2677, "MEAN_ANOMALY": 167.3196, "EPHEMERIS_TYPE": 0, "CLASSIFICATION_TYPE": "U", "NORAD_CAT_ID": 33782, "ELEMENT_SET_NO": 999, "REV_AT_EPOCH": 88119, "BSTAR": 0.00072162649, "MEAN_MOTION_DOT": 2.273e-05, "MEAN_MOTION_DDOT": 0}, "tle": {"line1": "1 33782U 93036X   25346.25932354  .00002273  00000+0  72163-3 0  9992", "line2": "2 33782  74.0335 278.4350 0020754 343.2677 167.3196 14.40446427881192"}}, "geometry": {"type": "Point", "coordinates": [-76.22649842277744, 21.030763658929523]}}, {"type": "Feature", "properties": {"norad_id": 33785, "name": "COSMOS 2251 DEB", "group": "cosmos-2251-debris", "lat": -55.88620658096445, "lon": -94.87481457459295, "alt_km": 673.9388309378601, "timestamp": "2025-12-12T18:57:44.521687+00:00", "meta": {"OBJECT_NAME": "COSMOS 2251 DEB", "OBJECT_ID": "1993-036AA", "EPOCH": "2025-12-12T06:42:05.738976", "MEAN_MOTION": 14.70476822, "ECCENTRICITY": 0.00222389, "INCLINATION": 73.8671, "RA_OF_ASC_NODE": 60.8302, "ARG_OF_PERICENTER": 0.3926, "MEAN_ANOMALY": 56.0097, "EPHEMERIS_TYPE": 0, "CLASSIFICATION_TYPE": "U", "NORAD_CAT_ID": 33785, "ELEMENT_SET_NO": 999, "REV_AT_EPOCH": 88500, "BSTAR": 0.0030301258, "MEAN_MOTION_DOT": 0.0001846, "MEAN_MOTION_DDOT": 0}, "tle": {"line1": "1 33785U 93036AA  25346.27923309  .00018460  00000+0  30301-2 0  9999", "line2": "2 33785  73.8671  60.8302 0022238   0.3926  56.0097 14.70476822885005"}}, "geometry": {"type": "Point", "coordinates": [-94.87481457459295, -55.88620658096445]}}, {"type": "Feature", "properties": {"norad_id": 33789, "name": "COSMOS 2251 DEB", "group": "cosmos-2251-debris", "lat": 39.903108407725746, "lon": 101.14294284620452, "alt_km": 1095.0004561543064, "timestamp": "2025-12-12T18:57:44.521698+00:00", "meta": {"OBJECT_NAME": "COSMOS 2251 DEB", "OBJECT_ID": "1993-036AE", "EPOCH": "2025-12-12T06:44:29.638176", "MEAN_MOTION": 13.88794803, "ECCENTRICITY": 0.02402114, "INCLINATION": 74.0648, "RA_OF_ASC_NODE": 88.1847, "ARG_OF_PERICENTER": 203.9212, "MEAN_ANOMALY": 174.0687, "EPHEMERIS_TYPE": 0, "CLASSIFICATION_TYPE": "U", "NORAD_CAT_ID": 33789, "ELEMENT_SET_NO": 999, "REV_AT_EPOCH": 85089, "BSTAR": 0.0012190458, "MEAN_MOTION_DOT": 1.83e-05, "MEAN_MOTION_DDOT": 0}, "tle": {"line1": "1 33789U 93036AE  25346.28089859  .00001830  00000+0  12190-2 0  9996", "line2": "2 33789  74.0648  88.1847 0240211 203.9212 174.0687 13.88794803850890"}}, "geometry": {"type": "Point", "coordinates": [101.14294284620452, 39.903108407725746]}}, {"type": "Feature", "properties": {"norad_id": 33791, "name": "COSMOS 2251 DEB", "group": "cosmos-2251-debris", "lat": -67.1713604521407, "lon": -4.868893126675572, "alt_km": 741.6507136369692, "timestamp": "2025-12-12T18:57:44.521708+00:00", "meta": {"OBJECT_NAME": "COSMOS 2251 DEB", "OBJECT_ID": "1993-036AG", "EPOCH": "2025-12-12T06:18:51.555744", "MEAN_MOTION": 14.43120106, "ECCENTRICITY": 0.0030534, "INCLINATION": 74.1755, "RA_OF_ASC_NODE": 38.4588, "ARG_OF_PERICENTER": 235.8438, "MEAN_ANOMALY": 193.7959, "EPHEMERIS_TYPE": 0, "CLASSIFICATION_TYPE": "U", "NORAD_CAT_ID": 33791, "ELEMENT_SET_NO": 999, "REV_AT_EPOCH": 88045, "BSTAR": 0.0012128047, "MEAN_MOTION_DOT": 4.071e-05, "MEAN_MOTION_DDOT": 0}, "tle": {"line1": "1 33791U 93036AG  25346.26309671  .00004071  00000+0  12128-2 0  9995", "line2": "2 33791  74.1755  38.4588 0030534 235.8438 193.7959 14.43120106880458"}}, "geometry": {"type": "Point", "coordinates": [-4.868893126675572, -67.1713604521407]}}, {"type": "Feature", "properties": {"norad_id": 33792, "name": "COSMOS 2251 DEB", "group": "cosmos-2251-debris", "lat": -45.03101348473129, "lon": -31.540162090669277, "alt_km": 1120.7879703288636, "timestamp": "2025-12-12T18:57:44.521718+00:00", "meta": {"OBJECT_NAME": "COSMOS 2251 DEB", "OBJECT_ID": "1993-036AH", "EPOCH": "2025-12-12T06:47:56.741568", "MEAN_MOTION": 13.45821278, "ECCENTRICITY": 0.04270468, "INCLINATION": 73.9009, "RA_OF_ASC_NODE": 346.0731, "ARG_OF_PERICENTER": 50.8096, "MEAN_ANOMALY": 332.1771, "EPHEMERIS_TYPE": 0, "CLASSIFICATION_TYPE": "U", "NORAD_CAT_ID": 33792, "ELEMENT_SET_NO": 999, "REV_AT_EPOCH": 82436, "BSTAR": 0.0010932495, "MEAN_MOTION_DOT": 1.113e-05, "MEAN_MOTION_DDOT": 0}, "tle": {"line1": "1 33792U 93036AH  25346.28329562  .00001113  00000+0  10932-2 0  9994", "line2": "2 33792  73.9009 346.0731 0427046  50.8096 332.1771 13.45821278824367"}}, "geometry": {"type": "Point", "coordinates": [-31.540162090669277, -45.03101348473129]}}, {"type": "Feature", "properties": {"norad_id": 33793, "name": "COSMOS 2251 DEB", "group": "cosmos-2251-debris", "lat": 12.488280939929721, "lon": -33.82145354969011, "alt_km": 838.3759666233427, "timestamp": "2025-12-12T18:57:44.521728+00:00", "meta": {"OBJECT_NAME": "COSMOS 2251 DEB", "OBJECT_ID": "1993-036AJ", "EPOCH": "2025-12-11T20:52:37.220736", "MEAN_MOTION": 14.27717804, "ECCENTRICITY": 0.0078486, "INCLINATION": 73.9807, "RA_OF_ASC_NODE": 151.4986, "ARG_OF_PERICENTER": 301.7685, "MEAN_ANOMALY": 177.9026, "EPHEMERIS_TYPE": 0, "CLASSIFICATION_TYPE": "U", "NORAD_CAT_ID": 33793, "ELEMENT_SET_NO": 999, "REV_AT_EPOCH": 87194, "BSTAR": 0.0010875, "MEAN_MOTION_DOT": 2.747e-05, "MEAN_MOTION_DDOT": 0}, "tle": {"line1": "1 33793U 93036AJ  25345.86987524  .00002747  00000+0  10875-2 0  9996", "line2": "2 33793  73.9807 151.4986 0078486 301.7685 177.9026 14.27717804871940"}}, "geometry": {"type": "Point", "coordinates": [-33.82145354969011, 12.488280939929721]}}, {"type": "Feature", "properties": {"norad_id": 33795, "name": "COSMOS 2251 DEB", "group": "cosmos-2251-debris", "lat": 49.468445491495196, "lon": -122.9312117951397, "alt_km": 526.607926564011, "timestamp": "2025-12-12T18:57:44.521738+00:00", "meta": {"OBJECT_NAME": "COSMOS 2251 DEB", "OBJECT_ID": "1993-036AL", "EPOCH": "2025-12-12T07:28:53.156640", "MEAN_MOTION": 15.05496991, "ECCENTRICITY": 0.0031498, "INCLINATION": 74.0318, "RA_OF_ASC_NODE": 77.615, "ARG_OF_PERICENTER": 161.0652, "MEAN_ANOMALY": 255.23, "EPHEMERIS_TYPE": 0, "CLASSIFICATION_TYPE": "U", "NORAD_CAT_ID": 33795, "ELEMENT_SET_NO": 999, "REV_AT_EPOCH": 90015, "BSTAR": 0.0018700731, "MEAN_MOTION_DOT": 0.00027262, "MEAN_MOTION_DDOT": 0}, "tle": {"line1": "1 33795U 93036AL  25346.31172635  .00027262  00000+0  18701-2 0  9993", "line2": "2 33795  74.0318  77.6150 0031498 161.0652 255.2300 15.05496991900155"}}, "geometry": {"type": "Point", "coordinates": [-122.9312117951397, 49.468445491495196]}}, {"type": "Feature", "properties": {"norad_id": 33797, "name": "COSMOS 2251 DEB", "group": "cosmos-2251-debris", "lat": -57.39751280891776, "lon": 8.299182109599972, "alt_km": 749.7618369493293, "timestamp": "2025-12-12T18:57:44.521748+00:00", "meta": {"OBJECT_NAME": "COSMOS 2251 DEB", "OBJECT_ID": "1993-036AN", "EPOCH": "2025-12-12T06:23:47.551776", "MEAN_MOTION": 14.57845915, "ECCENTRICITY": 0.00607372, "INCLINATION": 74.0479, "RA_OF_ASC_NODE": 35.8585, "ARG_OF_PERICENTER": 123.9138, "MEAN_ANOMALY": 308.1807, "EPHEMERIS_TYPE": 0, "CLASSIFICATION_TYPE": "U", "NORAD_CAT_ID": 33797, "ELEMENT_SET_NO": 999, "REV_AT_EPOCH": 88978, "BSTAR": 0.00066680007, "MEAN_MOTION_DOT": 3.103e-05, "MEAN_MOTION_DDOT": 0}, "tle": {"line1": "1 33797U 93036AN  25346.26652259  .00003103  00000+0  66680-3 0  9992", "line2": "2 33797  74.0479  35.8585 0060737 123.9138 308.1807 14.57845915889782"}}, "geometry": {"type": "Point", "coordinates": [8.299182109599972, -57.39751280891776]}}, {"type": "Feature", "properties": {"norad_id": 33798, "name": "COSMOS 2251 DEB", "group": "cosmos-2251-debris", "lat": 4.986305258832076, "lon": -45.62014013043926, "alt_km": 735.9992393488847, "timestamp": "2025-12-12T18:57:44.521758+00:00", "meta": {"OBJECT_NAME": "COSMOS 2251 DEB", "OBJECT_ID": "1993-036AP", "EPOCH": "2025-12-12T04:00:54.317376", "MEAN_MOTION": 14.44613211, "ECCENTRICITY": 0.00925006, "INCLINATION": 74.028, "RA_OF_ASC_NODE": 136.9714, "ARG_OF_PERICENTER": 258.4717, "MEAN_ANOMALY": 279.6321, "EPHEMERIS_TYPE": 0, "CLASSIFICATION_TYPE": "U", "NORAD_CAT_ID": 33798, "ELEMENT_SET_NO": 999, "REV_AT_EPOCH": 88585, "BSTAR": 0.00026878079, "MEAN_MOTION_DOT": 9.51e-06, "MEAN_MOTION_DDOT": 0}, "tle": {"line1": "1 33798U 93036AP  25346.16729534  .00000951  00000+0  26878-3 0  9996", "line2": "2 33798  74.0280 136.9714 0092500 258.4717 279.6321 14.44613211885855"}}, "geometry": {"type": "Point", "coordinates": [-45.62014013043926, 4.986305258832076]}}]}